[{"OBJECT_NAME":"CS2","OBJECT_ID":"2021-088C","EPOCH":"2026-03-09T17:38:11.846112","MEAN_MOTION":15.3325593,"ECCENTRICITY":0.00116375,"INCLINATION":97.3928,"RA_OF_ASC_NODE":134.2907,"ARG_OF_PERICENTER":82.3491,"MEAN_ANOMALY":277.9072,"EPHEMERIS_TYPE":0,"CLASSIFICATION_TYPE":"U","NORAD_CAT_ID":49262,"ELEMENT_SET_NO":999,"REV_AT_EPOCH":24526,"BSTAR":0.0005617759,"MEAN_MOTION_DOT":0.00018033,"MEAN_MOTION_DDOT":0},{"OBJECT_NAME":"STARLINK-36033","OBJECT_ID":"2025-283R","EPOCH":"2026-03-09T06:20:06.712512","MEAN_MOTION":15.30186705,"ECCENTRICITY":0.00011065,"INCLINATION":53.1627,"RA_OF_ASC_NODE":26.5248,"ARG_OF_PERICENTER":106.8453,"MEAN_ANOMALY":253.267,"EPHEMERIS_TYPE":0,"CLASSIFICATION_TYPE":"U","NORAD_CAT_ID":66893,"ELEMENT_SET_NO":999,"REV_AT_EPOCH":1577,"BSTAR":0.00064067578,"MEAN_MOTION_DOT":0.00018656,"MEAN_MOTION_DDOT":0}]
